UNKNOWN                 
1 81317U          25315.59304066  .00000380  00000+0  74262-3 0  9993
2 81317  67.1368 245.2034 0207140  56.2741 115.3734 13.37983795584468
UNKNOWN                 
1 81323U          25311.23837573  .00016082  00000+0  21562-2 0  9991
2 81323  65.7490 128.1282 0346631 331.9176  26.3592 14.45543590107923
UNKNOWN                 
1 81329U          25313.10435182  .00004910  00000+0  18031-2 0  9999
2 81329  65.8202 207.0886 0829573  45.3197 321.2454 13.21952876573631
UNKNOWN                 
1 81341U          25307.33032214 -.00004894  00000+0 -12730-1 0  9992
2 81341  99.4815 255.3761 0353920 243.4512 112.9910 12.96505407518317
UNKNOWN                 
1 81343U          25316.15747628  .00009093  00000+0  66808-3 0  9997
2 81343  85.8751 215.6854 0010308  28.6065 331.5731 15.03271285449728
UNKNOWN                 
1 81359U          25313.24012450  .00000931  00000+0  94084-3 0  9998
2 81359  66.7970 132.1695 0113974 346.3618  13.4381 13.78760676600867
UNKNOWN                 
1 81366U          25316.23013416  .00002654  00000+0  96815-3 0  9999
2 81366  65.8806 144.1902 0710159  96.5797 271.6538 13.45049192 61856
UNKNOWN                 
1 81371U          25311.51845073  .00006919  00000+0  11207-2 0  9992
2 81371  98.8163  45.1257 0071821 114.2123 246.6608 14.69878264636668
UNKNOWN                 
1 81386U          25315.56561226  .00012328  00000+0  40900-2 0  9995
2 81386  71.0473  64.1476 0087742 136.1873 224.6266 14.35728347619766
UNKNOWN                 
1 81390U          25315.97164346 -.00000464  00000+0 -31202-2 0  9992
2 81390 103.1058 202.6445 0167350 200.6033 158.8218 12.35655172496290
UNKNOWN                 
1 81392U          25314.71013391  .00004601  00000+0  43520-2 0  9999
2 81392 100.3974 299.7168 0037269 110.7149  65.4204 13.81373567597759
UNKNOWN                 
1 81405U          25306.35264018  .00001634  00000+0  12620-2 0  9999
2 81405  99.4680 353.8711 0158545 331.9698  27.2987 13.88686156556194
